TEVEL2-9                
1 63237U 25052AD  26068.70229538  .00018694  00000+0  67240-3 0  9992
2 63237  97.4057 324.3929 0007990 124.2475 235.9522 15.28633834 54816
STARLINK-35515          
1 66488U 25263D   26068.11839245  .00042838  00000+0  15562-2 0  9990
2 66488  43.0044 353.7399 0001758 261.7226  98.3426 15.27601008 18815
